{"type": "FeatureCollection", "features": [ {"type": "Feature", "properties": {"norad_id": 67050, "name": "STARLINK-36078", "group": "last-30-days", "lat": 41.67243020939647, "lon": -141.5822885404203, "alt_km": 339.7947074475178, "timestamp": "2025-12-24T07:45:04.935350+00:00", "meta": {"OBJECT_NAME": "STARLINK-36078", "OBJECT_ID": "2025-294W", "EPOCH": "2025-12-23T22:00:01.999584", "MEAN_MOTION": 15.76537096, "ECCENTRICITY": 0.00015717, "INCLINATION": 43.0003, "RA_OF_ASC_NODE": 113.6717, "ARG_OF_PERICENTER": 276.4918, "MEAN_ANOMALY": 38.839, "EPHEMERIS_TYPE": 0, "CLASSIFICATION_TYPE": "U", "NORAD_CAT_ID": 67050, "ELEMENT_SET_NO": 999, "REV_AT_EPOCH": 202, "BSTAR": -0.013487026, "MEAN_MOTION_DOT": -0.01922737, "MEAN_MOTION_DDOT": 0}, "tle": {"line1": "1 67050U 25294W   25357.91668981 -.01922737  00000+0 -13487-1 0  9996", "line2": "2 67050  43.0003 113.6717 0001571 276.4918  38.8390 15.76537096  2021"}}, "geometry": {"type": "Point", "coordinates": [-141.5822885404203, 41.67243020939647]}}, {"type": "Feature", "properties": {"norad_id": 67051, "name": "STARLINK-35706", "group": "last-30-days", "lat": 41.17054563434422, "lon": -138.60016028916706, "alt_km": 339.9776539477971, "timestamp": "2025-12-24T07:45:04.935363+00:00", "meta": {"OBJECT_NAME": "STARLINK-35706", "OBJECT_ID": "2025-294X", "EPOCH": "2025-12-23T22:00:01.999584", "MEAN_MOTION": 15.7651999, "ECCENTRICITY": 0.00016465, "INCLINATION": 43.0005, "RA_OF_ASC_NODE": 113.6658, "ARG_OF_PERICENTER": 275.9019, "MEAN_ANOMALY": 41.75, "EPHEMERIS_TYPE": 0, "CLASSIFICATION_TYPE": "U", "NORAD_CAT_ID": 67051, "ELEMENT_SET_NO": 999, "REV_AT_EPOCH": 210, "BSTAR": -0.013516504, "MEAN_MOTION_DOT": -0.01925162, "MEAN_MOTION_DDOT": 0}, "tle": {"line1": "1 67051U 25294X   25357.91668981 -.01925162  00000+0 -13517-1 0  9996", "line2": "2 67051  43.0005 113.6658 0001646 275.9019  41.7500 15.76519990  2105"}}, "geometry": {"type": "Point", "coordinates": [-138.60016028916706, 41.17054563434422]}}, {"type": "Feature", "properties": {"norad_id": 67052, "name": "STARLINK-35720", "group": "last-30-days", "lat": 40.67505066135481, "lon": -136.06110786964402, "alt_km": 340.1004028649413, "timestamp": "2025-12-24T07:45:04.935374+00:00", "meta": {"OBJECT_NAME": "STARLINK-35720", "OBJECT_ID": "2025-294Y", "EPOCH": "2025-12-23T22:00:01.999584", "MEAN_MOTION": 15.76518491, "ECCENTRICITY": 0.00017016, "INCLINATION": 43.0004, "RA_OF_ASC_NODE": 113.6609, "ARG_OF_PERICENTER": 278.3984, "MEAN_ANOMALY": 41.2383, "EPHEMERIS_TYPE": 0, "CLASSIFICATION_TYPE": "U", "NORAD_CAT_ID": 67052, "ELEMENT_SET_NO": 999, "REV_AT_EPOCH": 209, "BSTAR": -0.013524506, "MEAN_MOTION_DOT": -0.01926088, "MEAN_MOTION_DDOT": 0}, "tle": {"line1": "1 67052U 25294Y   25357.91668981 -.01926088  00000+0 -13525-1 0  9994", "line2": "2 67052  43.0004 113.6609 0001701 278.3984  41.2383 15.76518491  2098"}}, "geometry": {"type": "Point", "coordinates": [-136.06110786964402, 40.67505066135481]}}, {"type": "Feature", "properties": {"norad_id": 67053, "name": "STARLINK-35739", "group": "last-30-days", "lat": 40.06975728499988, "lon": -133.3268752626388, "alt_km": 340.2192755438555, "timestamp": "2025-12-24T07:45:04.935384+00:00", "meta": {"OBJECT_NAME": "STARLINK-35739", "OBJECT_ID": "2025-294Z", "EPOCH": "2025-12-23T22:00:01.999584", "MEAN_MOTION": 15.76503146, "ECCENTRICITY": 0.00017011, "INCLINATION": 43.0005, "RA_OF_ASC_NODE": 113.6552, "ARG_OF_PERICENTER": 277.6717, "MEAN_ANOMALY": 44.1559, "EPHEMERIS_TYPE": 0, "CLASSIFICATION_TYPE": "U", "NORAD_CAT_ID": 67053, "ELEMENT_SET_NO": 999, "REV_AT_EPOCH": 175, "BSTAR": -0.013498685, "MEAN_MOTION_DOT": -0.01921765, "MEAN_MOTION_DDOT": 0}, "tle": {"line1": "1 67053U 25294Z   25357.91668981 -.01921765  00000+0 -13499-1 0  9992", "line2": "2 67053  43.0005 113.6552 0001701 277.6717  44.1559 15.76503146  1753"}}, "geometry": {"type": "Point", "coordinates": [-133.3268752626388, 40.06975728499988]}}, {"type": "Feature", "properties": {"norad_id": 67054, "name": "STARLINK-35754", "group": "last-30-days", "lat": 39.34992263346982, "lon": -130.45066130365805, "alt_km": 340.30301349692036, "timestamp": "2025-12-24T07:45:04.935393+00:00", "meta": {"OBJECT_NAME": "STARLINK-35754", "OBJECT_ID": "2025-294AA", "EPOCH": "2025-12-23T22:00:01.999584", "MEAN_MOTION": 15.76485124, "ECCENTRICITY": 0.00015825, "INCLINATION": 43.0003, "RA_OF_ASC_NODE": 113.6493, "ARG_OF_PERICENTER": 276.9845, "MEAN_ANOMALY": 47.2013, "EPHEMERIS_TYPE": 0, "CLASSIFICATION_TYPE": "U", "NORAD_CAT_ID": 67054, "ELEMENT_SET_NO": 999, "REV_AT_EPOCH": 191, "BSTAR": -0.013542323, "MEAN_MOTION_DOT": -0.01925671, "MEAN_MOTION_DDOT": 0}, "tle": {"line1": "1 67054U 25294AA  25357.91668981 -.01925671  00000+0 -13542-1 0  9992", "line2": "2 67054  43.0003 113.6493 0001582 276.9845  47.2013 15.76485124  1919"}}, "geometry": {"type": "Point", "coordinates": [-130.45066130365805, 39.34992263346982]}}, {"type": "Feature", "properties": {"norad_id": 67055, "name": "STARLINK-35790", "group": "last-30-days", "lat": 38.58575514151332, "lon": -127.72143941534391, "alt_km": 340.40280495304523, "timestamp": "2025-12-24T07:45:04.935406+00:00", "meta": {"OBJECT_NAME": "STARLINK-35790", "OBJECT_ID": "2025-294AB", "EPOCH": "2025-12-23T22:00:01.999584", "MEAN_MOTION": 15.76467534, "ECCENTRICITY": 0.00015075, "INCLINATION": 43.0003, "RA_OF_ASC_NODE": 113.643, "ARG_OF_PERICENTER": 276.2615, "MEAN_ANOMALY": 50.2064, "EPHEMERIS_TYPE": 0, "CLASSIFICATION_TYPE": "U", "NORAD_CAT_ID": 67055, "ELEMENT_SET_NO": 999, "REV_AT_EPOCH": 210, "BSTAR": -0.013535775, "MEAN_MOTION_DOT": -0.01923482, "MEAN_MOTION_DDOT": 0}, "tle": {"line1": "1 67055U 25294AB  25357.91668981 -.01923482  00000+0 -13536-1 0  9994", "line2": "2 67055  43.0003 113.6430 0001507 276.2615  50.2064 15.76467534  2103"}}, "geometry": {"type": "Point", "coordinates": [-127.72143941534391, 38.58575514151332]}}, {"type": "Feature", "properties": {"norad_id": 67056, "name": "STARLINK-36143", "group": "last-30-days", "lat": 36.21848487446138, "lon": -120.64903405954172, "alt_km": 340.93750152504435, "timestamp": "2025-12-24T07:45:04.935416+00:00", "meta": {"OBJECT_NAME": "STARLINK-36143", "OBJECT_ID": "2025-294AC", "EPOCH": "2025-12-23T22:00:01.999584", "MEAN_MOTION": 15.76452445, "ECCENTRICITY": 0.00016634, "INCLINATION": 43.0002, "RA_OF_ASC_NODE": 113.6274, "ARG_OF_PERICENTER": 282.7638, "MEAN_ANOMALY": 49.8255, "EPHEMERIS_TYPE": 0, "CLASSIFICATION_TYPE": "U", "NORAD_CAT_ID": 67056, "ELEMENT_SET_NO": 999, "REV_AT_EPOCH": 210, "BSTAR": -0.013559596, "MEAN_MOTION_DOT": -0.01925431, "MEAN_MOTION_DDOT": 0}, "tle": {"line1": "1 67056U 25294AC  25357.91668981 -.01925431  00000+0 -13560-1 0  9998", "line2": "2 67056  43.0002 113.6274 0001663 282.7638  49.8255 15.76452445  2100"}}, "geometry": {"type": "Point", "coordinates": [-120.64903405954172, 36.21848487446138]}}, {"type": "Feature", "properties": {"norad_id": 67057, "name": "STARLINK-36141", "group": "last-30-days", "lat": 37.07884536385879, "lon": -123.02735518512571, "alt_km": 340.8092359913471, "timestamp": "2025-12-24T07:45:04.935428+00:00", "meta": {"OBJECT_NAME": "STARLINK-36141", "OBJECT_ID": "2025-294AD", "EPOCH": "2025-12-23T22:00:01.999584", "MEAN_MOTION": 15.76461501, "ECCENTRICITY": 0.00017234, "INCLINATION": 43.0001, "RA_OF_ASC_NODE": 113.6331, "ARG_OF_PERICENTER": 279.6155, "MEAN_ANOMALY": 50.8672, "EPHEMERIS_TYPE": 0, "CLASSIFICATION_TYPE": "U", "NORAD_CAT_ID": 67057, "ELEMENT_SET_NO": 999, "REV_AT_EPOCH": 202, "BSTAR": -0.013558697, "MEAN_MOTION_DOT": -0.01926055, "MEAN_MOTION_DDOT": 0}, "tle": {"line1": "1 67057U 25294AD  25357.91668981 -.01926055  00000+0 -13559-1 0  9990", "line2": "2 67057  43.0001 113.6331 0001723 279.6155  50.8672 15.76461501  2029"}}, "geometry": {"type": "Point", "coordinates": [-123.02735518512571, 37.07884536385879]}}, {"type": "Feature", "properties": {"norad_id": 67058, "name": "STARLINK-35767", "group": "last-30-days", "lat": 37.842549453561, "lon": -125.30882155606412, "alt_km": 340.6763544011619, "timestamp": "2025-12-24T07:45:04.935438+00:00", "meta": {"OBJECT_NAME": "STARLINK-35767", "OBJECT_ID": "2025-294AE", "EPOCH": "2025-12-23T22:00:01.999584", "MEAN_MOTION": 15.76467693, "ECCENTRICITY": 0.00017165, "INCLINATION": 43.0004, "RA_OF_ASC_NODE": 113.638, "ARG_OF_PERICENTER": 277.6255, "MEAN_ANOMALY": 50.8849, "EPHEMERIS_TYPE": 0, "CLASSIFICATION_TYPE": "U", "NORAD_CAT_ID": 67058, "ELEMENT_SET_NO": 999, "REV_AT_EPOCH": 191, "BSTAR": -0.013588471, "MEAN_MOTION_DOT": -0.01930163, "MEAN_MOTION_DDOT": 0}, "tle": {"line1": "1 67058U 25294AE  25357.91668981 -.01930163  00000+0 -13588-1 0  9998", "line2": "2 67058  43.0004 113.6380 0001716 277.6255  50.8849 15.76467693  1919"}}, "geometry": {"type": "Point", "coordinates": [-125.30882155606412, 37.842549453561]}}, {"type": "Feature", "properties": {"norad_id": 67059, "name": "HULIANWANG DIGUI-119", "group": "last-30-days", "lat": -48.145555898797696, "lon": -147.05092565997072, "alt_km": 805.5161098085082, "timestamp": "2025-12-24T07:45:04.935450+00:00", "meta": {"OBJECT_NAME": "HULIANWANG DIGUI-119", "OBJECT_ID": "2025-295A", "EPOCH": "2025-12-23T22:08:00.737664", "MEAN_MOTION": 14.24616037, "ECCENTRICITY": 0.0014027, "INCLINATION": 50.0051, "RA_OF_ASC_NODE": 325.0656, "ARG_OF_PERICENTER": 285.8158, "MEAN_ANOMALY": 74.1209, "EPHEMERIS_TYPE": 0, "CLASSIFICATION_TYPE": "U", "NORAD_CAT_ID": 67059, "ELEMENT_SET_NO": 999, "REV_AT_EPOCH": 171, "BSTAR": 7.4106467e-05, "MEAN_MOTION_DOT": 1.4e-07, "MEAN_MOTION_DDOT": 0}, "tle": {"line1": "1 67059U 25295A   25357.92223076  .00000014  00000+0  74106-4 0  9999", "line2": "2 67059  50.0051 325.0656 0014027 285.8158  74.1209 14.24616037  1714"}}, "geometry": {"type": "Point", "coordinates": [-147.05092565997072, -48.145555898797696]}}]}